0 TANSEI 3 DEB
1 13133U 77012J   13281.07052238  .00000308  00000-0  92417-3 0  2923
2 13133 065.8331 318.7947 1671386 307.8416 058.4998 10.87076074440325
0 TANSEI 3 DEB
1 13133U 77012J   13294.04459637  .00000583  00000-0  16563-2 0  2931
2 13133 065.8328 299.1782 1671315 303.9969 072.4718 10.87090232441736
